IRIDIUM 155             
1 43573U 18061E   25062.80150664  .00000082  00000+0  22078-4 0  9995
2 43573  86.3914 253.2050 0002331  84.6282 275.5180 14.34218815345930
IRIDIUM 154             
1 43574U 18061F   25062.92201886 -.00000041  00000+0 -21829-4 0  9992
2 43574  86.3921 253.2650 0001867  90.5125 269.6285 14.34217038346005
IRIDIUM 163             
1 43575U 18061G   25062.90299085 -.00000022  00000+0 -14857-4 0  9991
2 43575  86.3918 253.2031 0002049  92.7095 267.4335 14.34217263345975
IRIDIUM 156             
1 43576U 18061H   25062.87762065 -.00000026  00000+0 -16392-4 0  9991
2 43576  86.3918 253.2205 0002113  79.9245 280.2189 14.34217296345960
IRIDIUM 164             
1 43577U 18061J   25062.92836050 -.00000030  00000+0 -17860-4 0  9990
2 43577  86.3920 253.2322 0001696  89.7797 270.3593 14.34217190346019
IRIDIUM 159             
1 43578U 18061K   25062.89664650  .00000039  00000+0  68488-5 0  9992
2 43578  86.3914 253.1919 0002009  96.4141 263.7283 14.34218069345973
IRIDIUM 180             
1 43922U 19002A   25063.38452715  .00000550  00000+0  18916-3 0  9990
2 43922  86.4033 189.9160 0002135  96.7185 263.4253 14.34216984321695
IRIDIUM 176             
1 43923U 19002B   25063.36619032  .00002019  00000+0  31638-3 0  9994
2 43923  86.6154 189.9242 0002860 112.6621 247.4899 14.72243308330129
IRIDIUM 168             
1 43924U 19002C   25062.88980457  .00000070  00000+0  18048-4 0  9999
2 43924  86.4036 190.1862 0002074  99.5504 260.5926 14.34216920321562
IRIDIUM 173             
1 43925U 19002D   25063.43526800  .00000099  00000+0  28320-4 0  9995
2 43925  86.4033 189.8670 0002233  95.7327 264.4124 14.34216910321630
IRIDIUM 169             
1 43926U 19002E   25062.91640871  .00000714  00000+0  22685-3 0  9994
2 43926  86.4229 221.6623 0003630  85.6356 274.5257 14.38602936322612
IRIDIUM 172             
1 43927U 19002F   25063.42892441  .00000367  00000+0  12389-3 0  9998
2 43927  86.4036 189.8761 0002075 100.9309 259.2120 14.34217335321639
IRIDIUM 175             
1 43928U 19002G   25063.15708182  .00001707  00000+0  26680-3 0  9995
2 43928  86.1549 148.5380 0002719  73.1574 286.9940 14.72233709330086
IRIDIUM 171             
1 43929U 19002H   25063.40989558  .00000252  00000+0  83003-4 0  9999
2 43929  86.4043 190.1379 0001678  88.4729 271.6659 14.34217114321622
IRIDIUM 170             
1 43930U 19002J   25063.37240239  .00002037  00000+0  31913-3 0  9998
2 43930  86.6160 189.9275 0002384  84.2731 275.8758 14.72240834330138
IRIDIUM 167             
1 43931U 19002K   25062.84539344  .00000026  00000+0  23325-5 0  9994
2 43931  86.4035 190.1379 0002134  85.1348 275.0092 14.34213090321544
IRIDIUM 181             
1 56726U 23068S   25063.05318406  .00000219  00000+0  59131-4 0  9992
2 56726  86.4455 253.1445 0001853  77.1850 282.9558 14.43307793 94620
IRIDIUM 177             
1 56727U 23068T   25062.88301351  .00002594  00000+0  33781-3 0  9994
2 56727  86.2027 192.0643 0002288  88.1274 272.0209 14.80232717 96797
IRIDIUM 174             
1 56728U 23068U   25062.87758140  .00002698  00000+0  35161-3 0  9995
2 56728  86.2032 192.1908 0001599  93.5726 266.5678 14.80229952 96790
IRIDIUM 178             
1 56729U 23068V   25062.87214576  .00002526  00000+0  32895-3 0  9997
2 56729  86.5778 221.9192 0001237  97.3344 262.8018 14.80234652 96794
IRIDIUM 179             
1 56730U 23068W   25063.00191009  .00001004  00000+0  12861-3 0  9991
2 56730  86.6774 229.2643 0002000  96.7143 263.4306 14.80244931 96815
